{
  "type": "FeatureCollection",
  "features": [
    {
      "type": "Feature",
      "properties": {
        "norad_id": 44333,
        "name": "AT&T T-16",
        "group": "intelsat",
        "lat": 0.011348757692137845,
        "lon": -175.90030584292094,
        "alt_km": 35784.73168872977,
        "timestamp": "2025-12-08T13:49:31.461341+00:00",
        "meta_object_name": "AT&T T-16",
        "meta_object_id": "2019-034A",
        "meta_epoch": "2025-12-08T06:00:20.102688",
        "meta_mean_motion": 1.00269203,
        "meta_eccentricity": 5.34e-05,
        "meta_inclination": 0.0242,
        "meta_ra_of_asc_node": 60.8928,
        "meta_arg_of_pericenter": 101.4278,
        "meta_mean_anomaly": 264.1661,
        "meta_ephemeris_type": 0,
        "meta_classification_type": "U",
        "meta_norad_cat_id": 44333,
        "meta_element_set_no": 999,
        "meta_rev_at_epoch": 2371,
        "meta_bstar": 0,
        "meta_mean_motion_dot": -1.12e-06,
        "meta_mean_motion_ddot": 0,
        "tle_line1": "1 44333U 19034A   25342.25023267 -.00000112  00000+0  00000+0 0  9990",
        "tle_line2": "2 44333   0.0242  60.8928 0000534 101.4278 264.1661  1.00269203 23717"
      },
      "geometry": {
        "type": "Point",
        "coordinates": [
          -175.90030584292094,
          0.011348757692137845
        ]
      }
    },
    {
      "type": "Feature",
      "properties": {
        "norad_id": 44476,
        "name": "INTELSAT 39 (IS-39)",
        "group": "intelsat",
        "lat": 0.010398871842478069,
        "lon": -13.09916527267321,
        "alt_km": 35789.97278704747,
        "timestamp": "2025-12-08T13:49:31.461353+00:00",
        "meta_object_name": "INTELSAT 39 (IS-39)",
        "meta_object_id": "2019-049B",
        "meta_epoch": "2025-12-08T05:20:15.073152",
        "meta_mean_motion": 1.00270225,
        "meta_eccentricity": 8.498e-05,
        "meta_inclination": 0.0172,
        "meta_ra_of_asc_node": 325.2678,
        "meta_arg_of_pericenter": 188.8959,
        "meta_mean_anomaly": 65.0792,
        "meta_ephemeris_type": 0,
        "meta_classification_type": "U",
        "meta_norad_cat_id": 44476,
        "meta_element_set_no": 999,
        "meta_rev_at_epoch": 2321,
        "meta_bstar": 0,
        "meta_mean_motion_dot": 3.6e-07,
        "meta_mean_motion_ddot": 0,
        "tle_line1": "1 44476U 19049B   25342.22239668  .00000036  00000+0  00000+0 0  9999",
        "tle_line2": "2 44476   0.0172 325.2678 0000849 188.8959  65.0792  1.00270225 23215"
      },
      "geometry": {
        "type": "Point",
        "coordinates": [
          -13.09916527267321,
          0.010398871842478069
        ]
      }
    },
    {
      "type": "Feature",
      "properties": {
        "norad_id": 46114,
        "name": "GALAXY 30 (G-30)",
        "group": "intelsat",
        "lat": 0.005427147705823885,
        "lon": 159.9243144273111,
        "alt_km": 35787.39197225059,
        "timestamp": "2025-12-08T13:49:31.461364+00:00",
        "meta_object_name": "GALAXY 30 (G-30)",
        "meta_object_id": "2020-056C",
        "meta_epoch": "2025-12-08T05:46:43.301280",
        "meta_mean_motion": 1.00270993,
        "meta_eccentricity": 0.0002437,
        "meta_inclination": 0.017,
        "meta_ra_of_asc_node": 351.6835,
        "meta_arg_of_pericenter": 264.3869,
        "meta_mean_anomaly": 142.8564,
        "meta_ephemeris_type": 0,
        "meta_classification_type": "U",
        "meta_norad_cat_id": 46114,
        "meta_element_set_no": 999,
        "meta_rev_at_epoch": 1937,
        "meta_bstar": 0,
        "meta_mean_motion_dot": 3.9e-07,
        "meta_mean_motion_ddot": 0,
        "tle_line1": "1 46114U 20056C   25342.24077895  .00000039  00000+0  00000+0 0  9997",
        "tle_line2": "2 46114   0.0170 351.6835 0002437 264.3869 142.8564  1.00270993 19372"
      },
      "geometry": {
        "type": "Point",
        "coordinates": [
          159.9243144273111,
          0.005427147705823885
        ]
      }
    },
    {
      "type": "Feature",
      "properties": {
        "norad_id": 54026,
        "name": "GALAXY 33 (G-33)",
        "group": "intelsat",
        "lat": -0.00865521211240218,
        "lon": 151.93168376513796,
        "alt_km": 35787.39107297533,
        "timestamp": "2025-12-08T13:49:31.461376+00:00",
        "meta_object_name": "GALAXY 33 (G-33)",
        "meta_object_id": "2022-128A",
        "meta_epoch": "2025-12-08T05:42:50.193216",
        "meta_mean_motion": 1.00271663,
        "meta_eccentricity": 0.00022726,
        "meta_inclination": 0.0169,
        "meta_ra_of_asc_node": 300.5528,
        "meta_arg_of_pericenter": 309.077,
        "meta_mean_anomaly": 140.3276,
        "meta_ephemeris_type": 0,
        "meta_classification_type": "U",
        "meta_norad_cat_id": 54026,
        "meta_element_set_no": 999,
        "meta_rev_at_epoch": 1182,
        "meta_bstar": 0,
        "meta_mean_motion_dot": 8.2e-07,
        "meta_mean_motion_ddot": 0,
        "tle_line1": "1 54026U 22128A   25342.23808094  .00000082  00000+0  00000+0 0  9990",
        "tle_line2": "2 54026   0.0169 300.5528 0002272 309.0770 140.3276  1.00271663 11828"
      },
      "geometry": {
        "type": "Point",
        "coordinates": [
          151.93168376513796,
          -0.00865521211240218
        ]
      }
    },
    {
      "type": "Feature",
      "properties": {
        "norad_id": 54027,
        "name": "GALAXY 34 (G-34)",
        "group": "intelsat",
        "lat": -0.009234017408834649,
        "lon": 156.005813705727,
        "alt_km": 35786.560786759306,
        "timestamp": "2025-12-08T13:49:31.461387+00:00",
        "meta_object_name": "GALAXY 34 (G-34)",
        "meta_object_id": "2022-128B",
        "meta_epoch": "2025-12-08T05:44:47.318784",
        "meta_mean_motion": 1.00270169,
        "meta_eccentricity": 0.00013611,
        "meta_inclination": 0.0273,
        "meta_ra_of_asc_node": 316.9402,
        "meta_arg_of_pericenter": 289.4406,
        "meta_mean_anomaly": 148.1317,
        "meta_ephemeris_type": 0,
        "meta_classification_type": "U",
        "meta_norad_cat_id": 54027,
        "meta_element_set_no": 999,
        "meta_rev_at_epoch": 1199,
        "meta_bstar": 0,
        "meta_mean_motion_dot": 0,
        "meta_mean_motion_ddot": 0,
        "tle_line1": "1 54027U 22128B   25342.23943656  .00000000  00000+0  00000+0 0  9995",
        "tle_line2": "2 54027   0.0273 316.9402 0001361 289.4406 148.1317  1.00270169 11992"
      },
      "geometry": {
        "type": "Point",
        "coordinates": [
          156.005813705727,
          -0.009234017408834649
        ]
      }
    },
    {
      "type": "Feature",
      "properties": {
        "norad_id": 54243,
        "name": "GALAXY 31 (G-31)",
        "group": "intelsat",
        "lat": -0.01722773149185542,
        "lon": 163.94102669584524,
        "alt_km": 35787.06973324548,
        "timestamp": "2025-12-08T13:49:31.461399+00:00",
        "meta_object_name": "GALAXY 31 (G-31)",
        "meta_object_id": "2022-153A",
        "meta_epoch": "2025-12-08T05:49:39.710208",
        "meta_mean_motion": 1.00273838,
        "meta_eccentricity": 0.00019373,
        "meta_inclination": 0.0222,
        "meta_ra_of_asc_node": 258.0312,
        "meta_arg_of_pericenter": 7.0498,
        "meta_mean_anomaly": 138.5901,
        "meta_ephemeris_type": 0,
        "meta_classification_type": "U",
        "meta_norad_cat_id": 54243,
        "meta_element_set_no": 999,
        "meta_rev_at_epoch": 521,
        "meta_bstar": 0,
        "meta_mean_motion_dot": 1.5e-07,
        "meta_mean_motion_ddot": 0,
        "tle_line1": "1 54243U 22153A   25342.24282072  .00000015  00000+0  00000+0 0  9998",
        "tle_line2": "2 54243   0.0222 258.0312 0001937   7.0498 138.5901  1.00273838  5212"
      },
      "geometry": {
        "type": "Point",
        "coordinates": [
          163.94102669584524,
          -0.01722773149185542
        ]
      }
    },
    {
      "type": "Feature",
      "properties": {
        "norad_id": 54244,
        "name": "GALAXY 32 (G-32)",
        "group": "intelsat",
        "lat": -0.017902076586723978,
        "lon": -166.07275054397488,
        "alt_km": 35790.94383052414,
        "timestamp": "2025-12-08T13:49:31.461411+00:00",
        "meta_object_name": "GALAXY 32 (G-32)",
        "meta_object_id": "2022-153B",
        "meta_epoch": "2025-12-08T06:05:59.661600",
        "meta_mean_motion": 1.00270611,
        "meta_eccentricity": 0.00027185,
        "meta_inclination": 0.0093,
        "meta_ra_of_asc_node": 337.982,
        "meta_arg_of_pericenter": 329.4117,
        "meta_mean_anomaly": 130.3686,
        "meta_ephemeris_type": 0,
        "meta_classification_type": "U",
        "meta_norad_cat_id": 54244,
        "meta_element_set_no": 999,
        "meta_rev_at_epoch": 1122,
        "meta_bstar": 0,
        "meta_mean_motion_dot": -1.72e-06,
        "meta_mean_motion_ddot": 0,
        "tle_line1": "1 54244U 22153B   25342.25416275 -.00000172  00000+0  00000+0 0  9999",
        "tle_line2": "2 54244   0.0093 337.9820 0002718 329.4117 130.3686  1.00270611 11221"
      },
      "geometry": {
        "type": "Point",
        "coordinates": [
          -166.07275054397488,
          -0.017902076586723978
        ]
      }
    }
  ]
}